OBJECT_NAME,OBJECT_ID,EPOCH,MEAN_MOTION,ECCENTRICITY,INCLINATION,RA_OF_ASC_NODE,ARG_OF_PERICENTER,MEAN_ANOMALY,EPHEMERIS_TYPE,CLASSIFICATION_TYPE,NORAD_CAT_ID,ELEMENT_SET_NO,REV_AT_EPOCH,BSTAR,MEAN_MOTION_DOT,MEAN_MOTION_DDOT
INTELSAT 23 (IS-23),2012-057A,2026-06-26T23:05:23.485632,1.00271410,.00002242,0.0108,31.7840,126.1973,50.4343,0,U,38867,999,5005,0,-.273E-5,0
FM-6,2013-058A,2026-06-26T15:25:23.039328,1.00270785,.0001592,0.0160,44.7997,136.0744,208.9331,0,U,39360,999,4616,0,-.5E-7,0
INTELSAT 30 (IS-30),2014-062A,2026-06-26T16:58:42.683808,1.00270915,.000166,0.0246,50.4571,341.3643,42.6313,0,U,40271,999,688,0,-.139E-5,0
DIRECTV 14,2014-078B,2026-06-26T22:20:47.264640,1.00271063,.00002582,0.0105,14.3038,28.5234,108.1819,0,U,40333,999,4214,0,-.114E-5,0
DIRECTV 15,2015-026A,2026-06-26T15:29:07.680192,1.00270653,.00005561,0.0170,58.3843,346.9897,358.7982,0,U,40663,999,4055,0,-.91E-6,0
SKY MEXICO-1,2015-026B,2026-06-26T22:26:39.202080,1.00272091,.0002621,0.0045,43.7556,70.4329,58.7291,0,U,40664,999,4055,0,-.223E-5,0
INTELSAT 34 (IS-34),2015-039A,2026-06-26T10:34:44.193792,1.00271982,.000058,0.0077,356.9250,32.1514,348.6723,0,U,40874,999,3972,0,-.274E-5,0
INTELSAT 31 (IS-31),2016-035A,2026-06-26T13:48:49.083840,1.00270495,.0000652,0.0168,279.1177,356.3578,111.3752,0,U,41581,999,3677,0,-.139E-5,0
INTELSAT 36 (IS-36),2016-053A,2026-06-26T20:19:51.545568,1.00266822,.00017395,0.0108,13.4633,328.7334,306.2396,0,U,41747,999,3605,0,-.12E-6,0
INTELSAT 32E (IS-32E),2017-007B,2026-06-26T22:59:59.318016,1.00268631,.00005079,0.0144,338.3406,26.5367,212.0104,0,U,41945,999,3432,0,-.258E-5,0
INTELSAT 35E (IS-35E),2017-041A,2026-06-26T22:54:04.035168,1.00269159,.00023908,0.0271,24.3394,73.2171,126.5436,0,U,42818,999,3291,0,0,0
INTELSAT 37E (IS-37E),2017-059A,2026-06-26T22:43:46.835904,1.00271504,.00028945,0.0045,90.6455,4.0163,143.3493,0,U,42950,999,3216,0,-.129E-5,0
AZERSPACE 2 (IS-38),2018-074A,2026-06-25T04:15:28.573056,1.00272596,.00015866,0.0035,82.5969,10.3273,289.3716,0,U,43632,999,2852,0,.146E-5,0
HORIZONS-3E,2018-074B,2026-06-26T21:54:40.857696,1.00268864,.00006271,0.0051,291.0865,17.8683,103.7557,0,U,43633,999,2843,0,-.19E-6,0
AT&T T-16,2019-034A,2026-06-26T22:20:24.800640,1.00266213,.00002848,0.0174,61.8107,310.5486,136.9338,0,U,44333,999,2573,0,-.103E-5,0
INTELSAT 39 (IS-39),2019-049B,2026-06-26T20:46:38.455968,1.00270990,.0000917,0.0101,11.8316,340.6406,296.1206,0,U,44476,999,2522,0,.45E-6,0
GALAXY 30 (G-30),2020-056C,2026-06-26T15:22:53.277888,1.00270787,.00022948,0.0274,17.4127,76.1713,286.8850,0,U,46114,999,2138,0,0,0
GALAXY 33 (G-33),2022-128A,2026-06-26T17:03:15.823584,1.00271514,.00020578,0.0120,12.4122,77.3931,307.8406,0,U,54026,999,1383,0,.9E-6,0
GALAXY 34 (G-34),2022-128B,2026-06-26T06:26:09.054240,1.00266230,.0002008,0.0121,28.0825,73.1427,140.7009,0,U,54027,999,1400,0,.71E-6,0
GALAXY 31 (G-31),2022-153A,2026-06-26T22:14:40.352352,1.00269931,.00016485,0.0196,22.1683,78.5256,27.0149,0,U,54243,999,723,0,0,0
GALAXY 32 (G-32),2022-153B,2026-06-25T20:43:18.744096,1.00272131,.00020809,0.0103,23.4109,22.7250,87.6890,0,U,54244,999,1323,0,-.164E-5,0
GALAXY 35 (G-35),2022-170A,2026-06-26T22:22:32.098080,1.00269562,.00022226,0.0199,10.8698,84.9304,61.7737,0,U,54741,999,1299,0,0,0
GALAXY 36 (G-36),2022-170B,2026-06-26T22:23:46.978368,1.00271535,.00028833,0.0346,121.3566,327.8667,72.7759,0,U,54742,999,1287,0,-.174E-5,0
GALAXY 37 (G-37),2023-112A,2026-06-26T15:22:15.838176,1.00271790,.00022321,0.0141,51.4901,41.0965,285.7411,0,U,57493,999,1063,0,.59E-6,0
