INTELSAT 23 (IS-23)     
1 38867U 12057A   26177.96207738 -.00000273  00000+0  00000+0 0  9993
2 38867   0.0108  31.7840 0000224 126.1973  50.4343  1.00271410 50058
FM-6                    
1 39360U 13058A   26177.64262777 -.00000005  00000+0  00000+0 0  9996
2 39360   0.0160  44.7997 0001592 136.0744 208.9331  1.00270785 46165
INTELSAT 30 (IS-30)     
1 40271U 14062A   26177.70743847 -.00000139  00000+0  00000+0 0  9992
2 40271   0.0246  50.4571 0001660 341.3643  42.6313  1.00270915  6883
DIRECTV 14              
1 40333U 14078B   26177.93110260 -.00000114  00000+0  00000+0 0  9993
2 40333   0.0105  14.3038 0000258  28.5234 108.1819  1.00271063 42148
DIRECTV 15              
1 40663U 15026A   26177.64522778 -.00000091  00000+0  00000+0 0  9996
2 40663   0.0170  58.3843 0000556 346.9897 358.7982  1.00270653 40552
SKY MEXICO-1            
1 40664U 15026B   26177.93517595 -.00000223  00000+0  00000+0 0  9997
2 40664   0.0045  43.7556 0002621  70.4329  58.7291  1.00272091 40555
INTELSAT 34 (IS-34)     
1 40874U 15039A   26177.44078928 -.00000274  00000+0  00000+0 0  9998
2 40874   0.0077 356.9250 0000580  32.1514 348.6723  1.00271982 39722
INTELSAT 31 (IS-31)     
1 41581U 16035A   26177.57556810 -.00000139  00000+0  00000+0 0  9996
2 41581   0.0168 279.1177 0000652 356.3578 111.3752  1.00270495 36771
INTELSAT 36 (IS-36)     
1 41747U 16053A   26177.84712437 -.00000012  00000+0  00000+0 0  9999
2 41747   0.0108  13.4633 0001739 328.7334 306.2396  1.00266822 36054
INTELSAT 32E (IS-32E)   
1 41945U 17007B   26177.95832544 -.00000258  00000+0  00000+0 0  9995
2 41945   0.0144 338.3406 0000507  26.5367 212.0104  1.00268631 34321
INTELSAT 35E (IS-35E)   
1 42818U 17041A   26177.95421337  .00000000  00000+0  00000+0 0  9991
2 42818   0.0271  24.3394 0002390  73.2171 126.5436  1.00269159 32910
INTELSAT 37E (IS-37E)   
1 42950U 17059A   26177.94706986 -.00000129  00000+0  00000+0 0  9995
2 42950   0.0045  90.6455 0002894   4.0163 143.3493  1.00271504 32166
AZERSPACE 2 (IS-38)     
1 43632U 18074A   26176.17741404  .00000146  00000+0  00000+0 0  9997
2 43632   0.0035  82.5969 0001586  10.3273 289.3716  1.00272596 28528
HORIZONS-3E             
1 43633U 18074B   26177.91297289 -.00000019  00000+0  00000+0 0  9998
2 43633   0.0051 291.0865 0000627  17.8683 103.7557  1.00268864 28436
AT&T T-16               
1 44333U 19034A   26177.93084260 -.00000103  00000+0  00000+0 0  9992
2 44333   0.0174  61.8107 0000284 310.5486 136.9338  1.00266213 25736
INTELSAT 39 (IS-39)     
1 44476U 19049B   26177.86572287  .00000045  00000+0  00000+0 0  9993
2 44476   0.0101  11.8316 0000917 340.6406 296.1206  1.00270990 25224
GALAXY 30 (G-30)        
1 46114U 20056C   26177.64089442  .00000000  00000+0  00000+0 0  9997
2 46114   0.0274  17.4127 0002294  76.1713 286.8850  1.00270787 21388
GALAXY 33 (G-33)        
1 54026U 22128A   26177.71059981  .00000090  00000+0  00000+0 0  9992
2 54026   0.0120  12.4122 0002057  77.3931 307.8406  1.00271514 13832
GALAXY 34 (G-34)        
1 54027U 22128B   26177.26816035  .00000071  00000+0  00000+0 0  9993
2 54027   0.0121  28.0825 0002008  73.1427 140.7009  1.00266230 14009
GALAXY 31 (G-31)        
1 54243U 22153A   26177.92685593  .00000000  00000+0  00000+0 0  9999
2 54243   0.0196  22.1683 0001648  78.5256  27.0149  1.00269931  7236
GALAXY 32 (G-32)        
1 54244U 22153B   26176.86341139 -.00000164  00000+0  00000+0 0  9999
2 54244   0.0103  23.4109 0002080  22.7250  87.6890  1.00272131 13236
GALAXY 35 (G-35)        
1 54741U 22170A   26177.93231595  .00000000  00000+0  00000+0 0  9991
2 54741   0.0199  10.8698 0002222  84.9304  61.7737  1.00269562 12993
GALAXY 36 (G-36)        
1 54742U 22170B   26177.93318262 -.00000174  00000+0  00000+0 0  9992
2 54742   0.0346 121.3566 0002883 327.8667  72.7759  1.00271535 12870
GALAXY 37 (G-37)        
1 57493U 23112A   26177.64046109  .00000059  00000+0  00000+0 0  9992
2 57493   0.0141  51.4901 0002232  41.0965 285.7411  1.00271790 10635
